0 PSLV DEB
1 27115U 01049BK  13282.35685383  .00013995  00000-0  91733-3 0  8438
2 27115 097.6276 241.4335 0042200 013.2753 139.7437 15.07068266643442
0 PSLV DEB
1 27115U 01049BK  13283.35289405  .00013070  00000-0  85679-3 0  8441
2 27115 097.6274 242.4207 0042070 009.7924 143.8210 15.07086053643599
0 PSLV DEB
1 27115U 01049BK  13286.13719493  .00012177  00000-0  79767-3 0  8465
2 27115 097.6278 245.1806 0041722 000.3214 130.3370 15.07143348644017
0 PSLV DEB
1 27115U 01049BK  13287.39758035  .00012270  00000-0  80323-3 0  8474
2 27115 097.6283 246.4301 0041549 356.1111 128.8087 15.07170152644203
0 PSLV DEB
1 27115U 01049BK  13288.39954530  .00016367  00000-0  10687-2 0  8480
2 27115 097.6285 247.4236 0041358 352.7730 165.2635 15.07201471644359
0 PSLV DEB
1 27115U 01049BK  13289.84287987  .00016074  00000-0  10489-2 0  8492
2 27115 097.6291 248.8544 0041112 348.0127 076.6368 15.07237436644571
0 PSLV DEB
1 27115U 01049BK  13291.16912218  .00013859  00000-0  90459-3 0  8508
2 27115 097.6300 250.1691 0040831 343.5157 072.9716 15.07273533644777
0 PSLV DEB
1 27115U 01049BK  13292.82935426  .00013646  00000-0  89010-3 0  8514
2 27115 097.6305 251.8153 0040493 337.8185 081.8663 15.07314329645022
0 PSLV DEB
1 27115U 01049BK  13294.15631140  .00014414  00000-0  93926-3 0  8524
2 27115 097.6308 253.1313 0040282 333.1071 082.6521 15.07344724645223
0 PSLV DEB
1 27115U 01049BK  13295.36929374  .00015000  00000-0  97651-3 0  8539
2 27115 097.6307 254.3344 0040138 328.7313 185.1440 15.07375653645402
